ONEWEB-0585             
1 54652U 22166L   24061.90917041  .00000364  00000+0  85065-3 0  9992
2 54652  87.9232  50.6257 0002001  78.4541 281.6817 13.21827239 60919
ONEWEB-0587             
1 54654U 22166N   24061.93123500  .00000059  00000+0  11162-3 0  9994
2 54654  87.9222  50.5997 0001710  77.8925 282.2400 13.21826103 61077
ONEWEB-0590             
1 54656U 22166Q   24061.71520042 -.00000030  00000+0 -10321-3 0  9991
2 54656  87.9229  50.6730 0001665  86.8430 273.2895 13.21824981 60891
ONEWEB-0591             
1 54657U 22166R   24061.50071454  .00000014  00000+0  27547-5 0  9997
2 54657  87.9224  50.7166 0002006  91.3550 268.7814 13.21826106 60896
ONEWEB-0592             
1 54658U 22166S   24061.88234708  .00000036  00000+0  54815-4 0  9993
2 54658  87.9220  50.6099 0002054  95.1690 264.9678 13.21827688 60822
